{
    "links": {
        "self": "http://www.neowsapp.com/rest/v1/neo/3648001?api_key=iIulBulltgU6a56xZRHN4H3l9WmuAYTsLGpBGhQ2"
    },
    "id": "3648001",
    "neo_reference_id": "3648001",
    "name": "(2013 RR43)",
    "designation": "2013 RR43",
    "nasa_jpl_url": "http://ssd.jpl.nasa.gov/sbdb.cgi?sstr=3648001",
    "absolute_magnitude_h": 25.4,
    "estimated_diameter": {
        "kilometers": {
            "estimated_diameter_min": 0.022108281,
            "estimated_diameter_max": 0.0494356193
        },
        "meters": {
            "estimated_diameter_min": 22.1082810359,
            "estimated_diameter_max": 49.435619262
        },
        "miles": {
            "estimated_diameter_min": 0.0137374447,
            "estimated_diameter_max": 0.0307178602
        },
        "feet": {
            "estimated_diameter_min": 72.5337327539,
            "estimated_diameter_max": 162.1903570994
        }
    },
    "is_potentially_hazardous_asteroid": false,
    "close_approach_data": [
        {
            "close_approach_date": "2013-09-07",
            "close_approach_date_full": "2013-Sep-07 17:57",
            "epoch_date_close_approach": 1378576620000,
            "relative_velocity": {
                "kilometers_per_second": "18.6355736344",
                "kilometers_per_hour": "67088.0650837194",
                "miles_per_hour": "41685.9146627144"
            },
            "miss_distance": {
                "astronomical": "0.0048548572",
                "lunar": "1.8885394508",
                "kilometers": "726276.296274164",
                "miles": "451287.1640409032"
            },
            "orbiting_body": "Moon"
        },
        {
            "close_approach_date": "2013-09-07",
            "close_approach_date_full": "2013-Sep-07 23:32",
            "epoch_date_close_approach": 1378596720000,
            "relative_velocity": {
                "kilometers_per_second": "19.075138444",
                "kilometers_per_hour": "68670.4983985584",
                "miles_per_hour": "42669.177185482"
            },
            "miss_distance": {
                "astronomical": "0.003774962",
                "lunar": "1.468460218",
                "kilometers": "564726.27453094",
                "miles": "350904.635329372"
            },
            "orbiting_body": "Earth"
        },
        {
            "close_approach_date": "2132-09-20",
            "close_approach_date_full": "2132-Sep-20 05:28",
            "epoch_date_close_approach": 5134944480000,
            "relative_velocity": {
                "kilometers_per_second": "24.5551374325",
                "kilometers_per_hour": "88398.4947569863",
                "miles_per_hour": "54927.3869227507"
            },
            "miss_distance": {
                "astronomical": "0.1847241763",
                "lunar": "71.8577045807",
                "kilometers": "27634343.311984481",
                "miles": "17171184.6956525978"
            },
            "orbiting_body": "Earth"
        }
    ],
    "orbital_data": {
        "orbit_id": "8",
        "orbit_determination_date": "2017-04-06 08:44:44",
        "first_observation_date": "2013-09-09",
        "last_observation_date": "2013-09-24",
        "data_arc_in_days": 15,
        "observations_used": 26,
        "orbit_uncertainty": "8",
        "minimum_orbit_intersection": ".000193189",
        "jupiter_tisserand_invariant": "3.849",
        "epoch_osculation": "2456549.5",
        "eccentricity": ".6398583258615952",
        "semi_major_axis": "1.76049230828686",
        "inclination": "2.010430613558582",
        "ascending_node_longitude": "165.2235696460907",
        "orbital_period": "853.1975993315403",
        "perihelion_distance": ".6340266472142144",
        "perihelion_argument": "93.16847042327734",
        "aphelion_distance": "2.886957969359506",
        "perihelion_time": "2456494.226103982337",
        "mean_anomaly": "23.32238461752442",
        "mean_motion": ".4219421154982753",
        "equinox": "J2000",
        "orbit_class": {
            "orbit_class_type": "APO",
            "orbit_class_description": "Near-Earth asteroid orbits which cross the Earth’s orbit similar to that of 1862 Apollo",
            "orbit_class_range": "a (semi-major axis) > 1.0 AU; q (perihelion) < 1.017 AU"
        }
    },
    "is_sentry_object": false
}